QIANFAN-60              
1 62790U 25016F   25362.48157929  .00000177  00000+0  25561-3 0  9997
2 62790  88.9763 101.4497 0014017 299.0373  60.9373 13.50988836 49359
QIANFAN-61              
1 62791U 25016G   25362.51440836  .00000182  00000+0  26305-3 0  9997
2 62791  88.9830 101.6199 0012962 298.4361  61.5484 13.50985316 49375
QIANFAN-62              
1 62792U 25016H   25362.51856036  .00000189  00000+0  27475-3 0  9997
2 62792  88.9776 101.4795 0014344 298.6949  61.2759 13.50981948 49363
QIANFAN-63              
1 62793U 25016J   25362.46913626  .00000185  00000+0  26869-3 0  9993
2 62793  88.9784 101.4370 0014431 304.9040  55.0754 13.50980347 49393
QIANFAN-64              
1 62794U 25016K   25362.51029764  .00000187  00000+0  27171-3 0  9990
2 62794  88.9770 101.4048 0012326 296.9507  63.0385 13.50983674 49395
QIANFAN-65              
1 62795U 25016L   25362.50616756  .00000191  00000+0  27677-3 0  9999
2 62795  88.9766 101.4307 0012174 298.9504  61.0426 13.50982977 49376
QIANFAN-66              
1 62796U 25016M   25362.46093847  .00000195  00000+0  28310-3 0  9994
2 62796  88.9786 101.4086 0013265 293.9448  66.0314 13.50982156 49412
QIANFAN-67              
1 62797U 25016N   25362.46514103  .00000187  00000+0  27153-3 0  9993
2 62797  88.9776 101.4322 0013270 301.7843  58.2015 13.50986313 49384
QIANFAN-68              
1 62798U 25016P   25362.45680852  .00000200  00000+0  29165-3 0  9999
2 62798  88.9779 101.4788 0013313 299.7919  60.1908 13.50988737 49365
QIANFAN-69              
1 62799U 25016Q   25362.47326807  .00000184  00000+0  26652-3 0  9998
2 62799  88.9758 101.3431 0014067 300.9496  59.0272 13.50991496 49401
QIANFAN-70              
1 62800U 25016R   25362.41573736  .00000204  00000+0  29687-3 0  9994
2 62800  88.9779 101.4910 0013643 290.2860  69.6824 13.50982450 49359
QIANFAN-71              
1 62801U 25016S   25362.41154296  .00000189  00000+0  27467-3 0  9997
2 62801  88.9773 101.4699 0014018 305.1471  54.8366 13.50981919 49355
QIANFAN-72              
1 62802U 25016T   25362.50205900  .00000189  00000+0  27461-3 0  9991
2 62802  88.9764 101.4723 0017349 312.4179  47.5504 13.50981726 49359
QIANFAN-73              
1 63159U 25046A   25362.45516322  .00000202  00000+0  29332-3 0  9992
2 63159  88.9776 318.3965 0016994  78.4981 281.8078 13.50981426 49536
QIANFAN-74              
1 63160U 25046B   25362.43856584  .00000209  00000+0  30534-3 0  9992
2 63160  88.9776 318.2870 0001995  72.4762 287.6607 13.50978303 49596
QIANFAN-75              
1 63161U 25046C   25362.49988646  .00000240  00000+0  35326-3 0  9993
2 63161  88.9778 318.5145 0018140  80.9186 279.4017 13.50983989 49478
QIANFAN-76              
1 63162U 25046D   25362.49653431  .00000185  00000+0  26704-3 0  9993
2 63162  88.9776 318.4954 0015686  81.3575 278.9352 13.50983690 49489
QIANFAN-77              
1 63163U 25046E   25362.45375692  .00000571  00000+0  40624-3 0  9996
2 63163  88.9777 316.3780 0016453  37.4308 322.8011 13.96101025 50649
QIANFAN-78              
1 63164U 25046F   25362.46336443  .00000229  00000+0  33607-3 0  9992
2 63164  88.9776 318.3627 0017047  83.5095 276.7997 13.50981995 49556
QIANFAN-79              
1 63165U 25046G   25362.49200549  .00000225  00000+0  32880-3 0  9991
2 63165  88.9779 318.4678 0016754  81.8554 278.4496 13.50983802 49509
QIANFAN-80              
1 63166U 25046H   25362.43448433  .00000243  00000+0  35795-3 0  9990
2 63166  88.9777 318.1803 0015698  85.6842 274.6103 13.50981838 49659
QIANFAN-81              
1 63167U 25046J   25362.41257677  .00000238  00000+0  34909-3 0  9997
2 63167  88.9777 318.2504 0016749  75.6443 284.6566 13.51007823 49606
QIANFAN-82              
1 63168U 25046K   25362.44694074  .00000225  00000+0  32991-3 0  9992
2 63168  88.9777 318.2909 0014875  82.3809 277.9031 13.50980787 49593
QIANFAN-83              
1 63169U 25046L   25362.49426041  .00000276  00000+0  34198-3 0  9992
2 63169  88.9777 318.0314 0016184  68.8233 291.4652 13.61980436 49747
QIANFAN-84              
1 63170U 25046M   25362.47462192  .00000217  00000+0  31635-3 0  9997
2 63170  88.9777 318.4206 0017850  79.3484 280.9676 13.50991011 49523
QIANFAN-85              
1 63171U 25046N   25362.47149441  .00000253  00000+0  37256-3 0  9992
2 63171  88.9777 318.2926 0015234  81.2705 279.0171 13.50981788 49599
QIANFAN-86              
1 63172U 25046P   25362.40576132  .00000221  00000+0  32284-3 0  9998
2 63172  88.9779 318.1619 0013097  84.9349 275.3297 13.50981331 49669
QIANFAN-87              
1 63173U 25046Q   25362.45118063  .00000215  00000+0  31478-3 0  9996
2 63173  88.9775 318.2683 0013763  80.9393 279.3315 13.50978852 49606
QIANFAN-88              
1 63174U 25046R   25362.46743637  .00000238  00000+0  34892-3 0  9997
2 63174  88.9778 318.2215 0014134  87.7832 272.4937 13.50985538 49633
QIANFAN-89              
1 63175U 25046S   25362.43029120  .00000231  00000+0  33845-3 0  9999
2 63175  88.9777 318.4144 0018527  79.7956 280.5283 13.50981503 49524
QIANFAN-90              
1 63176U 25046T   25362.45902497  .00000216  00000+0  31583-3 0  9999
2 63176  88.9777 318.3838 0015467  78.1355 282.1530 13.50981601 49544
QIANFAN-91              
1 66033U 25233A   25362.45558193  .00000041  00000+0  39821-4 0  9992
2 66033  88.9944  60.5144 0015794 359.1223   0.9901 13.57895919 10123
QIANFAN-92              
1 66034U 25233B   25362.50565071  .00000030  00000+0  23727-4 0  9998
2 66034  88.9931  60.5012 0015559   0.1774 359.9384 13.58666802 10138
QIANFAN-93              
1 66035U 25233C   25362.08705679  .00000040  00000+0  38673-4 0  9999
2 66035  88.9927  60.5489 0014534   2.4317 357.6907 13.58575197 10077
QIANFAN-94              
1 66036U 25233D   25362.50889705  .00000168  00000+0  18136-3 0  9992
2 66036  88.9950  60.4875 0014931 356.8213   3.2850 13.68546606 10147
QIANFAN-95              
1 66037U 25233E   25362.49963774  .00000332  00000+0  19059-3 0  9998
2 66037  88.9949  60.2840 0013943   0.0494   0.0687 14.07040286 10259
QIANFAN-96              
1 66038U 25233F   25362.11337720  .00000029  00000+0  23395-4 0  9996
2 66038  88.9956  60.5512 0014231   3.9021 356.2243 13.58478112 10078
QIANFAN-97              
1 66039U 25233G   25362.12759877  .00000034  00000+0  28749-4 0  9993
2 66039  89.0013  60.5620 0017583   1.0826 359.0365 13.60797784 10089
QIANFAN-98              
1 66040U 25233H   25362.41746701  .00000050  00000+0  34227-4 0  9995
2 66040  88.9939  60.3998 0014316 359.6880   0.4277 13.82580330 10186
QIANFAN-99              
1 66041U 25233J   25362.44469696  .00000028  00000+0  21689-4 0  9997
2 66041  88.9947  60.5137 0014712   0.6344 359.4827 13.58685264 10128
QIANFAN-100             
1 66042U 25233K   25362.39506138  .00000015  00000+0  25799-5 0  9998
2 66042  88.9946  60.4349 0015054   3.9552 356.1725 13.69035044 10161
QIANFAN-101             
1 66043U 25233L   25362.51731709  .00000274  00000+0  10737-3 0  9998
2 66043  88.9946  60.2121 0014108 352.5663   7.5320 14.26684941 10295
QIANFAN-102             
1 66044U 25233M   25362.40630976  .00000036  00000+0  28336-4 0  9992
2 66044  88.9946  60.4902 0014456   1.4270 358.6929 13.66799926 10136
QIANFAN-103             
1 66045U 25233N   25362.44705225  .00000034  00000+0  28155-4 0  9994
2 66045  88.9947  60.5143 0014512   2.5366 357.5861 13.61205947 10129
QIANFAN-104             
1 66046U 25233P   25362.47952966  .00000173  00000+0  17785-3 0  9994
2 66046  88.9949  60.4840 0013913   4.9628 355.1670 13.71545356 10142
QIANFAN-105             
1 66047U 25233Q   25362.50218502  .00000244  00000+0  18557-3 0  9997
2 66047  88.9951  60.4145 0015008   0.7097 359.4096 13.90521798 10183
QIANFAN-106             
1 66048U 25233R   25362.45829442  .00000035  00000+0  30891-4 0  9997
2 66048  88.9976  60.4974 0014128 353.2694   6.8271 13.60517416 10134
QIANFAN-107             
1 66049U 25233S   25362.17037458  .00000034  00000+0  28654-4 0  9998
2 66049  88.9965  60.5261 0014039   3.1340 356.9902 13.60047189 10093
QIANFAN-108             
1 66050U 25233T   25362.45224117  .00000035  00000+0  28505-4 0  9997
2 66050  88.9945  60.4966 0014744   3.8807 356.2463 13.63791252 10132
